STARLINK-31334          
1 59157U 24044F   26068.81628732 -.00002151  00000+0 -68658-4 0  9997
2 59157  43.0034 109.8659 0001304 290.5191  69.5521 15.27573584113545
FLOCK 4G-25             
1 62646U 25009AP  26068.74572546  .00010373  00000+0  38902-3 0  9990
2 62646  97.4049 151.4141 0000828 316.3151  43.8023 15.27424196 63734
